CTC1_L_00247016-03
1 31347U 26758AZ  26037.47803241  .00000000  00000+0  00000-0 0  9992
2 31347  60.0000 180.0000 0000000   0.0000   0.0000 15.48880291    12
CTC1_L_00247016-04
1 31348U 22195RB  26037.47803241  .00000000  00000+0  00000-0 0  9994
2 31348  60.0000 180.0000 0000000   0.0000  90.0000 15.48880291    12
CTC1_L_00247017-01
1 31349U 22354TC  26037.47803241  .00000000  00000+0  00000-0 0  9992
2 31349  60.0000 192.0000 0000000   0.0000 192.0000 15.48880291    19
CTC1_L_00247017-02
1 31350U 22154OU  26037.47803241  .00000000  00000+0  00000-0 0  9992
2 31350  60.0000 192.0000 0000000   0.0000 282.0000 15.48880291    11
CTC1_L_00247017-03
1 31351U 22015DW  26037.47803241  .00000000  00000+0  00000-0 0  9999
2 31351  60.0000 192.0000 0000000   0.0000  12.0000 15.48880291    13
CTC1_L_00247017-04
1 31352U 22443KS  26037.47803241  .00000000  00000+0  00000-0 0  9995
2 31352  60.0000 192.0000 0000000   0.0000 102.0000 15.48880291    14
CTC1_L_00247018-01
1 31353U 24557PJ  26037.47803241  .00000000  00000+0  00000-0 0  9994
2 31353  60.0000 204.0000 0000000   0.0000 204.0000 15.48880291    12
CTC1_L_00247018-02
1 31354U 25454ME  26037.47803241  .00000000  00000+0  00000-0 0  9992
2 31354  60.0000 204.0000 0000000   0.0000 294.0000 15.48880291    12
CTC1_L_00247018-03
1 31355U 25282CC  26037.47803241  .00000000  00000+0  00000-0 0  9992
2 31355  60.0000 204.0000 0000000   0.0000  24.0000 15.48880291    14
CTC1_L_00247018-04
1 31356U 23278WY  26037.47803241  .00000000  00000+0  00000-0 0  9996
2 31356  60.0000 204.0000 0000000   0.0000 114.0000 15.48880291    15
CTC1_L_00247019-01
1 31357U 23093CX  26037.47803241  .00000000  00000+0  00000-0 0  9992
2 31357  60.0000 216.0000 0000000   0.0000 216.0000 15.48880291    12
CTC1_L_00247019-02
1 31358U 22932OO  26037.47803241  .00000000  00000+0  00000-0 0  9994
2 31358  60.0000 216.0000 0000000   0.0000 306.0000 15.48880291    13
CTC1_L_00247019-03
1 31359U 25653ZN  26037.47803241  .00000000  00000+0  00000-0 0  9998
2 31359  60.0000 216.0000 0000000   0.0000  36.0000 15.48880291    14
CTC1_L_00247019-04
1 31360U 24637KA  26037.47803241  .00000000  00000+0  00000-0 0  9991
2 31360  60.0000 216.0000 0000000   0.0000 126.0000 15.48880291    16
CTC1_L_00247020-01
1 31361U 25578AL  26037.47803241  .00000000  00000+0  00000-0 0  9997
2 31361  60.0000 228.0000 0000000   0.0000 228.0000 15.48880291    13
CTC1_L_00247020-02
1 31362U 23310IQ  26037.47803241  .00000000  00000+0  00000-0 0  9990
2 31362  60.0000 228.0000 0000000   0.0000 318.0000 15.48880291    14
CTC1_L_00247020-03
1 31363U 24377XH  26037.47803241  .00000000  00000+0  00000-0 0  9995
2 31363  60.0000 228.0000 0000000   0.0000  48.0000 15.48880291    15
CTC1_L_00247020-04
1 31364U 23391UD  26037.47803241  .00000000  00000+0  00000-0 0  9991
2 31364  60.0000 228.0000 0000000   0.0000 138.0000 15.48880291    16
CTC1_L_00247021-01
1 31365U 25161DS  26037.47803241  .00000000  00000+0  00000-0 0  9999
2 31365  60.0000 240.0000 0000000   0.0000 240.0000 15.48880291    15
CTC1_L_00247021-02
1 31366U 23850QY  26037.47803241  .00000000  00000+0  00000-0 0  9993
2 31366  60.0000 240.0000 0000000   0.0000 330.0000 15.48880291    16
CTC1_L_00247021-03
1 31367U 23993VX  26037.47803241  .00000000  00000+0  00000-0 0  9992
2 31367  60.0000 240.0000 0000000   0.0000  60.0000 15.48880291    17
CTC1_L_00247021-04
1 31368U 22684PN  26037.47803241  .00000000  00000+0  00000-0 0  9999
2 31368  60.0000 240.0000 0000000   0.0000 150.0000 15.48880291    18
CTC1_L_00247022-01
1 31369U 24103SR  26037.47803241  .00000000  00000+0  00000-0 0  9998
2 31369  60.0000 252.0000 0000000   0.0000 252.0000 15.48880291    15
CTC1_L_00247022-02
1 31370U 24060E   26037.47803241  .00000000  00000+0  00000-0 0  9992
2 31370  60.0000 252.0000 0000000   0.0000 342.0000 15.48880291    17
CTC1_L_00247022-03
1 31371U 24487AC  26037.47803241  .00000000  00000+0  00000-0 0  9996
2 31371  60.0000 252.0000 0000000   0.0000  72.0000 15.48880291    18
CTC1_L_00247022-04
1 31372U 23819ED  26037.47803241  .00000000  00000+0  00000-0 0  9995
2 31372  60.0000 252.0000 0000000   0.0000 162.0000 15.48880291    19
CTC1_L_00247023-01
1 31373U 25128PX  26037.47803241  .00000000  00000+0  00000-0 0  9991
2 31373  60.0000 264.0000 0000000   0.0000 264.0000 15.48880291    16
CTC1_L_00247023-02
1 31374U 26638XB  26037.47803241  .00000000  00000+0  00000-0 0  9999
2 31374  60.0000 264.0000 0000000   0.0000 354.0000 15.48880291    17
CTC1_L_00247023-03
1 31375U 22009DH  26037.47803241  .00000000  00000+0  00000-0 0  9998
2 31375  60.0000 264.0000 0000000   0.0000  84.0000 15.48880291    18
CTC1_L_00247023-04
1 31376U 24538JH  26037.47803241  .00000000  00000+0  00000-0 0  9998
2 31376  60.0000 264.0000 0000000   0.0000 174.0000 15.48880291    19
CTC1_L_00247024-01
1 31377U 23140NO  26037.47803241  .00000000  00000+0  00000-0 0  9997
2 31377  60.0000 276.0000 0000000   0.0000 276.0000 15.48880291    16
CTC1_L_00247024-02
1 31378U 22307LA  26037.47803241  .00000000  00000+0  00000-0 0  9992
2 31378  60.0000 276.0000 0000000   0.0000   6.0000 15.48880291    18
CTC1_L_00247024-03
1 31379U 25424ZX  26037.47803241  .00000000  00000+0  00000-0 0  9996
2 31379  60.0000 276.0000 0000000   0.0000  96.0000 15.48880291    18
CTC1_L_00247024-04
1 31380U 25762OY  26037.47803241  .00000000  00000+0  00000-0 0  9993
2 31380  60.0000 276.0000 0000000   0.0000 186.0000 15.48880291    10
CTC1_L_00247025-01
1 31381U 22773BK  26037.47803241  .00000000  00000+0  00000-0 0  9993
2 31381  60.0000 288.0000 0000000   0.0000 288.0000 15.48880291    17
CTC1_L_00247025-02
1 31382U 26746BU  26037.47803241  .00000000  00000+0  00000-0 0  9998
2 31382  60.0000 288.0000 0000000   0.0000  18.0000 15.48880291    19
CTC1_L_00247025-03
1 31383U 26310AG  26037.47803241  .00000000  00000+0  00000-0 0  9996
2 31383  60.0000 288.0000 0000000   0.0000 108.0000 15.48880291    10
CTC1_L_00247025-04
1 31384U 26554QB  26037.47803241  .00000000  00000+0  00000-0 0  9997
2 31384  60.0000 288.0000 0000000   0.0000 198.0000 15.48880291    10
CTC1_L_00247026-01
1 31385U 23890HE  26037.47803241  .00000000  00000+0  00000-0 0  9998
2 31385  60.0000 300.0000 0000000   0.0000 300.0000 15.48880291    11
CTC1_L_00247026-02
1 31386U 26386IA  26037.47803241  .00000000  00000+0  00000-0 0  9992
2 31386  60.0000 300.0000 0000000   0.0000  30.0000 15.48880291    12
CTC1_L_00247026-03
1 31387U 22965OS  26037.47803241  .00000000  00000+0  00000-0 0  9992
2 31387  60.0000 300.0000 0000000   0.0000 120.0000 15.48880291    13
CTC1_L_00247026-04
1 31388U 25961FC  26037.47803241  .00000000  00000+0  00000-0 0  9992
2 31388  60.0000 300.0000 0000000   0.0000 210.0000 15.48880291    14
CTC1_L_00247027-01
1 31389U 24626CG  26037.47803241  .00000000  00000+0  00000-0 0  9990
2 31389  60.0000 312.0000 0000000   0.0000 312.0000 15.48880291    11
CTC1_L_00247027-02
1 31390U 23831MA  26037.47803241  .00000000  00000+0  00000-0 0  9999
2 31390  60.0000 312.0000 0000000   0.0000  42.0000 15.48880291    13
CTC1_L_00247027-03
1 31391U 23551YN  26037.47803241  .00000000  00000+0  00000-0 0  9999
2 31391  60.0000 312.0000 0000000   0.0000 132.0000 15.48880291    14
CTC1_L_00247027-04
1 31392U 24160TC  26037.47803241  .00000000  00000+0  00000-0 0  9997
2 31392  60.0000 312.0000 0000000   0.0000 222.0000 15.48880291    15
CTC1_L_00247028-01
1 31393U 24466ES  26037.47803241  .00000000  00000+0  00000-0 0  9997
2 31393  60.0000 324.0000 0000000   0.0000 324.0000 15.48880291    12
CTC1_L_00247028-02
1 31394U 22668BD  26037.47803241  .00000000  00000+0  00000-0 0  9990
2 31394  60.0000 324.0000 0000000   0.0000  54.0000 15.48880291    13
CTC1_L_00247028-03
1 31395U 24619DC  26037.47803241  .00000000  00000+0  00000-0 0  9999
2 31395  60.0000 324.0000 0000000   0.0000 144.0000 15.48880291    14
CTC1_L_00247028-04
1 31396U 26972IU  26037.47803241  .00000000  00000+0  00000-0 0  9994
2 31396  60.0000 324.0000 0000000   0.0000 234.0000 15.48880291    15
CTC1_L_00247029-01
1 31397U 26165BA  26037.47803241  .00000000  00000+0  00000-0 0  9999
2 31397  60.0000 336.0000 0000000   0.0000 336.0000 15.48880291    12
CTC1_L_00247029-02
1 31398U 23753KB  26037.47803241  .00000000  00000+0  00000-0 0  9990
2 31398  60.0000 336.0000 0000000   0.0000  66.0000 15.48880291    13
CTC1_L_00247029-03
1 31399U 22823EX  26037.47803241  .00000000  00000+0  00000-0 0  9998
2 31399  60.0000 336.0000 0000000   0.0000 156.0000 15.48880291    14
CTC1_L_00247029-04
1 31400U 26996CW  26037.47803241  .00000000  00000+0  00000-0 0  9996
2 31400  60.0000 336.0000 0000000   0.0000 246.0000 15.48880291    17
CTC1_L_00247030-01
1 31401U 25766JA  26037.47803241  .00000000  00000+0  00000-0 0  9991
2 31401  60.0000 348.0000 0000000   0.0000 348.0000 15.48880291    14
CTC1_L_00247030-02
1 31402U 26982UC  26037.47803241  .00000000  00000+0  00000-0 0  9993
2 31402  60.0000 348.0000 0000000   0.0000  78.0000 15.48880291    15
CTC1_L_00247030-03
1 31403U 22407JI  26037.47803241  .00000000  00000+0  00000-0 0  9992
2 31403  60.0000 348.0000 0000000   0.0000 168.0000 15.48880291    16
CTC1_L_00247030-04
1 31404U 23872SR  26037.47803241  .00000000  00000+0  00000-0 0  9990
2 31404  60.0000 348.0000 0000000   0.0000 258.0000 15.48880291    17
